{
    "CCSDS_OMM_VERS": "3.0",
    "COMMENT": "GENERATED VIA SPACE-TRACK.ORG API",
    "CREATION_DATE": "2025-11-23T14:26:32",
    "ORIGINATOR": "18 SPCS",
    "OBJECT_NAME": "COSMOS 2465 (GLONASS)",
    "OBJECT_ID": "2010-041B",
    "CENTER_NAME": "EARTH",
    "REF_FRAME": "TEME",
    "TIME_SYSTEM": "UTC",
    "MEAN_ELEMENT_THEORY": "SGP4",
    "EPOCH": "2025-11-23T07:10:38.772768",
    "MEAN_MOTION": "2.13098332",
    "ECCENTRICITY": "0.00407090",
    "INCLINATION": "63.9073",
    "RA_OF_ASC_NODE": "197.2885",
    "ARG_OF_PERICENTER": "178.7484",
    "MEAN_ANOMALY": "4.3577",
    "EPHEMERIS_TYPE": "0",
    "CLASSIFICATION_TYPE": "U",
    "NORAD_CAT_ID": "37138",
    "ELEMENT_SET_NO": "999",
    "REV_AT_EPOCH": "11847",
    "BSTAR": "0.00000000000000",
    "MEAN_MOTION_DOT": "0.00000063",
    "MEAN_MOTION_DDOT": "0.0000000000000",
    "SEMIMAJOR_AXIS": "25508.317",
    "PERIOD": "675.744",
    "APOAPSIS": "19234.024",
    "PERIAPSIS": "19026.340",
    "OBJECT_TYPE": "PAYLOAD",
    "RCS_SIZE": "LARGE",
    "COUNTRY_CODE": "CIS",
    "LAUNCH_DATE": "2010-09-02",
    "SITE": "TTMTR",
    "DECAY_DATE": null,
    "FILE": "4895585",
    "GP_ID": "303301410",
    "TLE_LINE0": "0 COSMOS 2465 (GLONASS)",
    "TLE_LINE1": "1 37138U 10041B   25327.29905987  .00000063  00000-0  00000+0 0  9994",
    "TLE_LINE2": "2 37138  63.9073 197.2885 0040709 178.7484   4.3577  2.13098332118479"
}